[{"OBJECT_NAME":"STARLINK-3598","OBJECT_ID":"2022-022AX","EPOCH":"2026-03-09T04:47:15.392544","MEAN_MOTION":15.08842429,"ECCENTRICITY":0.00015944,"INCLINATION":53.2201,"RA_OF_ASC_NODE":1.3173,"ARG_OF_PERICENTER":88.0274,"MEAN_ANOMALY":272.0901,"EPHEMERIS_TYPE":0,"CLASSIFICATION_TYPE":"U","NORAD_CAT_ID":51897,"ELEMENT_SET_NO":999,"REV_AT_EPOCH":22317,"BSTAR":5.2171769e-5,"MEAN_MOTION_DOT":5.42e-6,"MEAN_MOTION_DDOT":0},{"OBJECT_NAME":"CZ-6A DEB","OBJECT_ID":"2022-151KB","EPOCH":"2026-03-09T19:20:41.637408","MEAN_MOTION":14.94061736,"ECCENTRICITY":0.0071589,"INCLINATION":98.7004,"RA_OF_ASC_NODE":166.2159,"ARG_OF_PERICENTER":166.3306,"MEAN_ANOMALY":193.9872,"EPHEMERIS_TYPE":0,"CLASSIFICATION_TYPE":"U","NORAD_CAT_ID":54523,"ELEMENT_SET_NO":999,"REV_AT_EPOCH":17710,"BSTAR":0.0044467837,"MEAN_MOTION_DOT":0.00050189,"MEAN_MOTION_DDOT":0}]
